[{"OBJECT_NAME":"STARLINK-31719","OBJECT_ID":"2024-071M","EPOCH":"2026-03-09T04:08:13.759872","MEAN_MOTION":15.27581616,"ECCENTRICITY":0.00021382,"INCLINATION":42.999,"RA_OF_ASC_NODE":342.9151,"ARG_OF_PERICENTER":231.8479,"MEAN_ANOMALY":128.218,"EPHEMERIS_TYPE":0,"CLASSIFICATION_TYPE":"U","NORAD_CAT_ID":59495,"ELEMENT_SET_NO":999,"REV_AT_EPOCH":10812,"BSTAR":0.00011079303,"MEAN_MOTION_DOT":2.788e-5,"MEAN_MOTION_DDOT":0},{"OBJECT_NAME":"SL-3 R\/B","OBJECT_ID":"1983-003B","EPOCH":"2026-03-09T21:31:00.897888","MEAN_MOTION":15.34640469,"ECCENTRICITY":0.00285789,"INCLINATION":81.155,"RA_OF_ASC_NODE":261.9078,"ARG_OF_PERICENTER":155.4571,"MEAN_ANOMALY":204.8036,"EPHEMERIS_TYPE":0,"CLASSIFICATION_TYPE":"U","NORAD_CAT_ID":13771,"ELEMENT_SET_NO":999,"REV_AT_EPOCH":35642,"BSTAR":0.00033440366,"MEAN_MOTION_DOT":0.00011405,"MEAN_MOTION_DDOT":0}]
